[
  {
    "OBJECT_NAME": "STARLINK-1585",
    "OBJECT_ID": "20057A",
    "EPOCH": "2025-11-11T06:58:22.538496",
    "MEAN_MOTION": 15.41343312,
    "ECCENTRICITY": 9.02e-05,
    "INCLINATION": 53.0545,
    "RA_OF_ASC_NODE": 102.8958,
    "ARG_OF_PERICENTER": 5.1673,
    "MEAN_ANOMALY": 354.9341,
    "EPHEMERIS_TYPE": 0,
    "CLASSIFICATION_TYPE": "U",
    "NORAD_CAT_ID": 46117,
    "ELEMENT_SET_NO": 999,
    "REV_AT_EPOCH": 28857,
    "BSTAR": 0.0048864,
    "MEAN_MOTION_DOT": 0.00212371,
    "MEAN_MOTION_DDOT": 0.0,
    "TLE_LINE1": "1 46117U 20057A   25315.29053864  .00212371  00000+0  48864-2 0  9993",
    "TLE_LINE2": "2 46117  53.0545 102.8958 0000902   5.1673 354.9341 15.41343312288575",
    "COMMENT": "Grouped by shell and plane from TLE"
  },
  {
    "OBJECT_NAME": "STARLINK-1625",
    "OBJECT_ID": "20057Q",
    "EPOCH": "2025-11-11T06:15:44.431488",
    "MEAN_MOTION": 15.41548707,
    "ECCENTRICITY": 0.0002048,
    "INCLINATION": 53.0547,
    "RA_OF_ASC_NODE": 103.2587,
    "ARG_OF_PERICENTER": 270.0227,
    "MEAN_ANOMALY": 90.0542,
    "EPHEMERIS_TYPE": 0,
    "CLASSIFICATION_TYPE": "U",
    "NORAD_CAT_ID": 46131,
    "ELEMENT_SET_NO": 999,
    "REV_AT_EPOCH": 28982,
    "BSTAR": 0.0010625,
    "MEAN_MOTION_DOT": 0.00045164,
    "MEAN_MOTION_DDOT": 0.0,
    "TLE_LINE1": "1 46131U 20057Q   25315.26093092  .00045164  00000+0  10625-2 0  9991",
    "TLE_LINE2": "2 46131  53.0547 103.2587 0002048 270.0227  90.0542 15.41548707289822",
    "COMMENT": "Grouped by shell and plane from TLE"
  },
  {
    "OBJECT_NAME": "STARLINK-1606",
    "OBJECT_ID": "20057AD",
    "EPOCH": "2025-11-11T08:00:03.000384",
    "MEAN_MOTION": 15.35821795,
    "ECCENTRICITY": 0.0002327,
    "INCLINATION": 53.0544,
    "RA_OF_ASC_NODE": 103.1082,
    "ARG_OF_PERICENTER": 277.6372,
    "MEAN_ANOMALY": 152.112,
    "EPHEMERIS_TYPE": 0,
    "CLASSIFICATION_TYPE": "U",
    "NORAD_CAT_ID": 46144,
    "ELEMENT_SET_NO": 999,
    "REV_AT_EPOCH": 571,
    "BSTAR": 0.005229,
    "MEAN_MOTION_DOT": 0.0018922,
    "MEAN_MOTION_DDOT": 0.0,
    "TLE_LINE1": "1 46144U 20057AD  25315.33336806  .00189220  00000+0  52290-2 0  9992",
    "TLE_LINE2": "2 46144  53.0544 103.1082 0002327 277.6372 152.1120 15.35821795  5716",
    "COMMENT": "Grouped by shell and plane from TLE"
  },
  {
    "OBJECT_NAME": "STARLINK-1545",
    "OBJECT_ID": "20057AR",
    "EPOCH": "2025-11-11T08:00:03.000384",
    "MEAN_MOTION": 15.34202496,
    "ECCENTRICITY": 0.0002952,
    "INCLINATION": 53.0532,
    "RA_OF_ASC_NODE": 103.7066,
    "ARG_OF_PERICENTER": 287.812,
    "MEAN_ANOMALY": 218.1077,
    "EPHEMERIS_TYPE": 0,
    "CLASSIFICATION_TYPE": "U",
    "NORAD_CAT_ID": 46156,
    "ELEMENT_SET_NO": 999,
    "REV_AT_EPOCH": 572,
    "BSTAR": 0.0051913,
    "MEAN_MOTION_DOT": 0.00178137,
    "MEAN_MOTION_DDOT": 0.0,
    "TLE_LINE1": "1 46156U 20057AR  25315.33336806  .00178137  00000+0  51913-2 0  9991",
    "TLE_LINE2": "2 46156  53.0532 103.7066 0002952 287.8120 218.1077 15.34202496  5727",
    "COMMENT": "Grouped by shell and plane from TLE"
  },
  {
    "OBJECT_NAME": "STARLINK-1633",
    "OBJECT_ID": "20057BG",
    "EPOCH": "2025-11-11T06:07:11.919648",
    "MEAN_MOTION": 15.34285744,
    "ECCENTRICITY": 0.0002919,
    "INCLINATION": 53.0521,
    "RA_OF_ASC_NODE": 103.8576,
    "ARG_OF_PERICENTER": 282.1708,
    "MEAN_ANOMALY": 77.8966,
    "EPHEMERIS_TYPE": 0,
    "CLASSIFICATION_TYPE": "U",
    "NORAD_CAT_ID": 46171,
    "ELEMENT_SET_NO": 999,
    "REV_AT_EPOCH": 28981,
    "BSTAR": 0.0042226,
    "MEAN_MOTION_DOT": 0.00144557,
    "MEAN_MOTION_DDOT": 0.0,
    "TLE_LINE1": "1 46171U 20057BG  25315.25499907  .00144557  00000+0  42226-2 0  9997",
    "TLE_LINE2": "2 46171  53.0521 103.8576 0002919 282.1708  77.8966 15.34285744289810",
    "COMMENT": "Grouped by shell and plane from TLE"
  },
  {
    "OBJECT_NAME": "STARLINK-1635",
    "OBJECT_ID": "20057BH",
    "EPOCH": "2025-11-11T05:41:53.981376",
    "MEAN_MOTION": 15.34460579,
    "ECCENTRICITY": 0.0002639,
    "INCLINATION": 53.0541,
    "RA_OF_ASC_NODE": 103.5953,
    "ARG_OF_PERICENTER": 266.5316,
    "MEAN_ANOMALY": 93.5384,
    "EPHEMERIS_TYPE": 0,
    "CLASSIFICATION_TYPE": "U",
    "NORAD_CAT_ID": 46172,
    "ELEMENT_SET_NO": 999,
    "REV_AT_EPOCH": 28981,
    "BSTAR": 0.0043524,
    "MEAN_MOTION_DOT": 0.00149948,
    "MEAN_MOTION_DDOT": 0.0,
    "TLE_LINE1": "1 46172U 20057BH  25315.23743034  .00149948  00000+0  43524-2 0  9990",
    "TLE_LINE2": "2 46172  53.0541 103.5953 0002639 266.5316  93.5384 15.34460579289819",
    "COMMENT": "Grouped by shell and plane from TLE"
  },
  {
    "OBJECT_NAME": "STARLINK-1893",
    "OBJECT_ID": "20074AZ",
    "EPOCH": "2025-11-11T03:24:42.955776",
    "MEAN_MOTION": 15.27352862,
    "ECCENTRICITY": 0.0002,
    "INCLINATION": 53.0586,
    "RA_OF_ASC_NODE": 102.0478,
    "ARG_OF_PERICENTER": 330.2074,
    "MEAN_ANOMALY": 29.881,
    "EPHEMERIS_TYPE": 0,
    "CLASSIFICATION_TYPE": "U",
    "NORAD_CAT_ID": 46786,
    "ELEMENT_SET_NO": 999,
    "REV_AT_EPOCH": 27925,
    "BSTAR": 0.0035239,
    "MEAN_MOTION_DOT": 0.00096556,
    "MEAN_MOTION_DDOT": 0.0,
    "TLE_LINE1": "1 46786U 20074AZ  25315.14216384  .00096556  00000+0  35239-2 0  9993",
    "TLE_LINE2": "2 46786  53.0586 102.0478 0002000 330.2074  29.8810 15.27352862279257",
    "COMMENT": "Grouped by shell and plane from TLE"
  },
  {
    "OBJECT_NAME": "STARLINK-1843",
    "OBJECT_ID": "20088M",
    "EPOCH": "2025-11-11T08:00:03.000384",
    "MEAN_MOTION": 15.4125962,
    "ECCENTRICITY": 0.0001234,
    "INCLINATION": 53.0546,
    "RA_OF_ASC_NODE": 100.0327,
    "ARG_OF_PERICENTER": 355.1274,
    "MEAN_ANOMALY": 113.1093,
    "EPHEMERIS_TYPE": 0,
    "CLASSIFICATION_TYPE": "U",
    "NORAD_CAT_ID": 47133,
    "ELEMENT_SET_NO": 999,
    "REV_AT_EPOCH": 581,
    "BSTAR": 0.0044404,
    "MEAN_MOTION_DOT": 0.00191894,
    "MEAN_MOTION_DDOT": 0.0,
    "TLE_LINE1": "1 47133U 20088M   25315.33336806  .00191894  00000+0  44404-2 0  9993",
    "TLE_LINE2": "2 47133  53.0546 100.0327 0001234 355.1274 113.1093 15.41259620  5810",
    "COMMENT": "Grouped by shell and plane from TLE"
  },
  {
    "OBJECT_NAME": "STARLINK-30459",
    "OBJECT_ID": "23147Q",
    "EPOCH": "2025-11-11T08:00:03.000384",
    "MEAN_MOTION": 15.47254699,
    "ECCENTRICITY": 0.0017983,
    "INCLINATION": 42.9964,
    "RA_OF_ASC_NODE": 104.9773,
    "ARG_OF_PERICENTER": 319.8768,
    "MEAN_ANOMALY": 78.3905,
    "EPHEMERIS_TYPE": 0,
    "CLASSIFICATION_TYPE": "U",
    "NORAD_CAT_ID": 57927,
    "ELEMENT_SET_NO": 999,
    "REV_AT_EPOCH": 579,
    "BSTAR": 0.0023951000000000003,
    "MEAN_MOTION_DOT": 0.00127484,
    "MEAN_MOTION_DDOT": 0.0,
    "TLE_LINE1": "1 57927U 23147Q   25315.33336806  .00127484  00000+0  23951-2 0  9992",
    "TLE_LINE2": "2 57927  42.9964 104.9773 0017983 319.8768  78.3905 15.47254699  5792",
    "COMMENT": "Grouped by shell and plane from TLE"
  },
  {
    "OBJECT_NAME": "STARLINK-30915",
    "OBJECT_ID": "23178G",
    "EPOCH": "2025-11-10T11:21:04.753152",
    "MEAN_MOTION": 15.30191233,
    "ECCENTRICITY": 0.0001056,
    "INCLINATION": 53.1589,
    "RA_OF_ASC_NODE": 105.0875,
    "ARG_OF_PERICENTER": 93.6238,
    "MEAN_ANOMALY": 266.4884,
    "EPHEMERIS_TYPE": 0,
    "CLASSIFICATION_TYPE": "U",
    "NORAD_CAT_ID": 58380,
    "ELEMENT_SET_NO": 999,
    "REV_AT_EPOCH": 11286,
    "BSTAR": 0.0,
    "MEAN_MOTION_DOT": -5.99e-06,
    "MEAN_MOTION_DDOT": 0.0,
    "TLE_LINE1": "1 58380U 23178G   25314.47297168 -.00000599  00000+0 -81136-5 0  9992",
    "TLE_LINE2": "2 58380  53.1589 105.0875 0001056  93.6238 266.4884 15.30191233112860",
    "COMMENT": "Grouped by shell and plane from TLE"
  },
  {
    "OBJECT_NAME": "STARLINK-31034",
    "OBJECT_ID": "24011W",
    "EPOCH": "2025-11-10T10:38:35.541888",
    "MEAN_MOTION": 15.30205237,
    "ECCENTRICITY": 0.00011,
    "INCLINATION": 53.1604,
    "RA_OF_ASC_NODE": 105.1983,
    "ARG_OF_PERICENTER": 82.5302,
    "MEAN_ANOMALY": 277.5824,
    "EPHEMERIS_TYPE": 0,
    "CLASSIFICATION_TYPE": "U",
    "NORAD_CAT_ID": 58785,
    "ELEMENT_SET_NO": 999,
    "REV_AT_EPOCH": 10347,
    "BSTAR": 0.00011487,
    "MEAN_MOTION_DOT": 3.045e-05,
    "MEAN_MOTION_DDOT": 0.0,
    "TLE_LINE1": "1 58785U 24011W   25314.44346692  .00003045  00000+0  11487-3 0  9999",
    "TLE_LINE2": "2 58785  53.1604 105.1983 0001100  82.5302 277.5824 15.30205237103471",
    "COMMENT": "Grouped by shell and plane from TLE"
  },
  {
    "OBJECT_NAME": "STARLINK-31359",
    "OBJECT_ID": "24027Q",
    "EPOCH": "2025-11-11T02:49:26.148864",
    "MEAN_MOTION": 15.3019994,
    "ECCENTRICITY": 0.0001726,
    "INCLINATION": 53.1559,
    "RA_OF_ASC_NODE": 101.9423,
    "ARG_OF_PERICENTER": 91.6082,
    "MEAN_ANOMALY": 268.5117,
    "EPHEMERIS_TYPE": 0,
    "CLASSIFICATION_TYPE": "U",
    "NORAD_CAT_ID": 58945,
    "ELEMENT_SET_NO": 999,
    "REV_AT_EPOCH": 9972,
    "BSTAR": 0.00012984000000000002,
    "MEAN_MOTION_DOT": 3.488e-05,
    "MEAN_MOTION_DDOT": 0.0,
    "TLE_LINE1": "1 58945U 24027Q   25315.11766376  .00003488  00000+0  12984-3 0  9998",
    "TLE_LINE2": "2 58945  53.1559 101.9423 0001726  91.6082 268.5117 15.30199940 99721",
    "COMMENT": "Grouped by shell and plane from TLE"
  },
  {
    "OBJECT_NAME": "STARLINK-31356",
    "OBJECT_ID": "24031D",
    "EPOCH": "2025-11-10T21:17:54.422880",
    "MEAN_MOTION": 15.30188211,
    "ECCENTRICITY": 0.00013,
    "INCLINATION": 53.1599,
    "RA_OF_ASC_NODE": 100.6668,
    "ARG_OF_PERICENTER": 65.3703,
    "MEAN_ANOMALY": 294.7433,
    "EPHEMERIS_TYPE": 0,
    "CLASSIFICATION_TYPE": "U",
    "NORAD_CAT_ID": 58968,
    "ELEMENT_SET_NO": 999,
    "REV_AT_EPOCH": 9873,
    "BSTAR": 0.00014614,
    "MEAN_MOTION_DOT": 3.97e-05,
    "MEAN_MOTION_DDOT": 0.0,
    "TLE_LINE1": "1 58968U 24031D   25314.88743545  .00003970  00000+0  14614-3 0  9992",
    "TLE_LINE2": "2 58968  53.1599 100.6668 0001300  65.3703 294.7433 15.30188211 98734",
    "COMMENT": "Grouped by shell and plane from TLE"
  }
]